STARLINK-4370           
1 53231U 22084AU  23228.91881025  .00001173  00000+0  95923-4 0  9994
2 53231  97.6566 289.1312 0001119  93.7156 266.4196 15.01261617 58922
STARLINK-4371           
1 53232U 22084AV  23228.05418067  .00001641  00000+0  13233-3 0  9995
2 53232  97.6568 288.2772 0000789 110.4184 249.7125 15.01260254 58792
STARLINK-4372           
1 53233U 22084AW  23229.11530685 -.00001273  00000+0 -94520-4 0  9997
2 53233  97.6560 289.3304 0000842 100.7699 259.3620 15.01271598 58959
STARLINK-4368           
1 53234U 22084AX  23228.58369711  .00000562  00000+0  48305-4 0  9996
2 53234  97.6563 288.7986 0000947 112.5981 247.5344 15.01261247 58887
STARLINK-4056           
1 53242U 22086A   23228.99639209  .00001175  00000+0  91906-4 0  9990
2 53242  53.2154  79.6006 0001269  85.6710 274.4427 15.08843299 59554
STARLINK-4047           
1 53243U 22086B   23228.99777695  .00001222  00000+0  94834-4 0  9999
2 53243  53.2154  84.6058 0001377  83.6402 276.4747 15.08841116 59489
STARLINK-4125           
1 53244U 22086C   23228.98670693  .00008243  00000+0  53481-3 0  9991
2 53244  53.2154  84.6544 0001025 107.8587 252.2517 15.08880586 59484
STARLINK-4124           
1 53245U 22086D   23228.99409212  .00001208  00000+0  93960-4 0  9991
2 53245  53.2165  84.6205 0001438  80.3056 279.8099 15.08844998 59482
STARLINK-4131           
1 53246U 22086E   23228.99041499  .00001038  00000+0  83318-4 0  9998
2 53246  53.2137  84.6371 0001471  84.8322 275.2838 15.08841462 59482
STARLINK-4061           
1 53247U 22086F   23228.87865653  .00000461  00000+0  47064-4 0  9999
2 53247  53.2167  80.3201 0001045  90.4342 269.6770 15.08841756 59537
STARLINK-4135           
1 53248U 22086G   23228.73512929  .00001345  00000+0  10261-3 0  9990
2 53248  53.2148  80.8884 0001542  89.5826 270.5343 15.08841736 59510
STARLINK-4128           
1 53249U 22086H   23229.00333035 -.00000603  00000+0 -19822-4 0  9992
2 53249  53.2153  74.5909 0001117  79.8453 280.2665 15.08844789 59629
STARLINK-4059           
1 53250U 22086J   23228.01245309  .00000802  00000+0  68506-4 0  9992
2 53250  53.2155  79.0308 0001451  87.8549 272.2609 15.08840192 59478
STARLINK-4129           
1 53251U 22086K   23228.99501238  .00000791  00000+0  67788-4 0  9994
2 53251  53.2157  74.6171 0001214  86.7746 273.3385 15.08842602 59622
STARLINK-4132           
1 53252U 22086L   23228.99869111  .00000497  00000+0  49308-4 0  9993
2 53252  53.2162  74.5514 0001336  88.0914 272.0231 15.08836297 59625
STARLINK-4133           
1 53253U 22086M   23228.99133597 -.00000096  00000+0  12049-4 0  9994
2 53253  53.2142  74.6353 0000863  69.1479 290.9605 15.08837646 59629
STARLINK-4134           
1 53254U 22086N   23228.99965289 -.00000013  00000+0  17264-4 0  9999
2 53254  53.2145  74.6048 0001475  88.3564 271.7597 15.08840238 59620
STARLINK-4142           
1 53255U 22086P   23228.71901194 -.00001641  00000+0 -85041-4 0  9992
2 53255  53.2155  75.8577 0001274  80.6239 279.4897 15.08847916 59586
STARLINK-4147           
1 53256U 22086Q   23228.98765115 -.00003588  00000+0 -20745-3 0  9994
2 53256  53.2133  74.6535 0000985  83.5773 276.5331 15.08846921 59628
STARLINK-4144           
1 53257U 22086R   23228.57549481  .00000827  00000+0  70017-4 0  9995
2 53257  53.2142  76.4996 0001343  79.0068 281.1076 15.08842253 59561
STARLINK-4127           
1 53258U 22086S   23228.58285689 -.00000006  00000+0  17730-4 0  9997
2 53258  53.2164  76.4690 0001296  87.8321 272.2819 15.08839612 59564
STARLINK-4140           
1 53259U 22086T   23229.00233167  .00001381  00000+0  10486-3 0  9996
2 53259  53.2156  74.2286 0001206  86.6381 273.4749 15.08838734 59634
STARLINK-4136           
1 53260U 22086U   23228.84413299  .00000798  00000+0  68218-4 0  9993
2 53260  53.2170  75.2975 0001488  91.0015 269.1148 15.08843361 59608
STARLINK-4062           
1 53261U 22086V   23229.02813253  .00002126  00000+0  15162-3 0  9995
2 53261  53.2171  74.4670 0001370 108.1264 251.9877 15.08840538 59633
STARLINK-4085           
1 53262U 22086W   23228.90301417  .00000387  00000+0  42400-4 0  9999
2 53262  53.2142  75.0271 0001457  99.2532 260.8625 15.08841543 59615
STARLINK-4130           
1 53263U 22086X   23229.02445516  .00000013  00000+0  18901-4 0  9998
2 53263  53.2172  74.4856 0001328  83.3827 276.7316 15.08839065 59630
STARLINK-3950           
1 53264U 22086Y   23228.89931630 -.00018919  00000+0 -11724-2 0  9990
2 53264  53.2148  75.0457 0001041 102.0096 258.1013 15.08881528 59614
STARLINK-4097           
1 53265U 22086Z   23228.95085168  .00000645  00000+0  58623-4 0  9990
2 53265  53.2161  74.8163 0001346  92.0398 268.0748 15.08846546 59629
STARLINK-4058           
1 53266U 22086AA  23229.02078019  .00000844  00000+0  71103-4 0  9996
2 53266  53.2158  74.5007 0001266  82.5961 277.5175 15.08834176 59637
STARLINK-4060           
1 53267U 22086AB  23228.94350731  .00008696  00000+0  56432-3 0  9991
2 53267  53.2145  74.8502 0001693 103.1166 257.0015 15.08804435 59628
STARLINK-4109           
1 53268U 22086AC  23228.88093775 -.00000839  00000+0 -34618-4 0  9993
2 53268  53.2183  75.1267 0000895  77.4522 282.6570 15.08837961 59614
STARLINK-4057           
1 53269U 22086AD  23228.80457218  .00001131  00000+0  89152-4 0  9999
2 53269  53.2131  65.4721 0001799  99.9018 260.2177 15.08843740 59738
STARLINK-4069           
1 53271U 22086AF  23228.00233350  .00001381  00000+0  10485-3 0  9992
2 53271  53.2175  69.0738 0001144  84.7808 275.3315 15.08842097 59612
STARLINK-4122           
1 53272U 22086AG  23228.80825475  .00000706  00000+0  62428-4 0  9991
2 53272  53.2165  65.4572 0001142  85.4608 274.6515 15.08839194 59733
STARLINK-4051           
1 53273U 22086AH  23228.98857116  .00001148  00000+0  90180-4 0  9995
2 53273  53.2160  64.6467 0001093  92.5171 267.5946 15.08843584 59762
STARLINK-4050           
1 53274U 22086AJ  23228.73465237  .00008417  00000+0  54620-3 0  9992
2 53274  53.2154  65.7879 0000850  90.5687 269.5402 15.08847189 59725
STARLINK-4179           
1 53275U 22086AK  23228.98490066  .00002787  00000+0  19317-3 0  9996
2 53275  53.2181  64.6633 0001251  87.3653 272.7483 15.08824580 59764
STARLINK-4174           
1 53276U 22086AL  23228.92601464  .00001697  00000+0  12466-3 0  9994
2 53276  53.2168  64.9287 0000705  79.4567 280.6505 15.08842945 59754
STARLINK-4178           
1 53277U 22086AM  23227.98393410 -.00001224  00000+0 -58826-4 0  9998
2 53277  53.2164  69.1857 0001050  91.0146 269.0966 15.08837475 59617
STARLINK-4180           
1 53278U 22086AN  23228.25257443  .00000521  00000+0  50847-4 0  9997
2 53278  53.2179  67.9521 0001131  91.0759 269.0363 15.08839104 59654
STARLINK-4169           
1 53280U 22086AQ  23228.70379526  .00000013  00000+0  18913-4 0  9991
2 53280  53.2156  20.6020 0001150  79.0819 281.0302 15.08838342 60366
STARLINK-4182           
1 53281U 22086AR  23228.56905263  .00000572  00000+0  53996-4 0  9999
2 53281  53.2114  66.5350 0001047  98.1502 261.9609 15.08841417 59702
STARLINK-4164           
1 53282U 22086AS  23227.98025347  .00000307  00000+0  37367-4 0  9991
2 53282  53.2136  69.1725 0001297 101.8124 258.3014 15.08837959 59617
STARLINK-4175           
1 53283U 22086AT  23227.57177223  .00001970  00000+0  14183-3 0  9995
2 53283  53.2155  71.0035 0001286 118.7835 241.3286 15.08842362 59559
STARLINK-4172           
1 53284U 22086AU  23228.57273716  .00000746  00000+0  64980-4 0  9992
2 53284  53.2172  66.5133 0001267  85.7123 274.4014 15.08835232 59700
STARLINK-4173           
1 53285U 22086AV  23228.95176892  .00005238  00000+0  34681-3 0  9997
2 53285  53.2156  64.8077 0000948  95.1384 264.9717 15.08850451 59760
STARLINK-4165           
1 53286U 22086AW  23228.96009848  .00000027  00000+0  19784-4 0  9994
2 53286  53.2137  64.7849 0001698  90.2242 269.8945 15.08834992 59767
STARLINK-4107           
1 53287U 22086AX  23227.95081418  .00001684  00000+0  12384-3 0  9994
2 53287  53.2160  69.3050 0001384  87.0537 273.0613 15.08841664 59619
STARLINK-4162           
1 53288U 22086AY  23228.55802070  .00002662  00000+0  18524-3 0  9996
2 53288  53.2152  66.5784 0001212  93.6915 266.4216 15.08848498 59704
STARLINK-4176           
1 53289U 22086AZ  23228.92097053 -.00000840  00000+0 -34646-4 0  9997
2 53289  53.2160  60.0916 0001505  86.6770 273.4394 15.08852205 59825
STARLINK-4149           
1 53290U 22086BA  23228.55064325 -.00002593  00000+0 -14492-3 0  9997
2 53290  53.2148  66.6108 0000724  98.1247 261.9827 15.08836962 59709
STARLINK-4166           
1 53291U 22086BB  23228.95404737  .00000951  00000+0  77853-4 0  9992
2 53291  53.2159  59.5909 0001094  84.5749 275.5368 15.08837531 59837
STARLINK-4159           
1 53292U 22086BC  23227.96556559  .00013900  00000+0  88995-3 0  9999
2 53292  53.2162  69.4247 0001197  79.5988 280.5139 15.08829338 59614
STARLINK-4148           
1 53293U 22086BD  23228.78069477  .00002302  00000+0  16269-3 0  9998
2 53293  53.2178  55.5774 0000469  91.2738 268.8308 15.08833160 59871
STARLINK-4146           
1 53294U 22086BE  23228.79811732  .00000279  00000+0  35605-4 0  9996
2 53294  53.2162  55.3365 0000979  79.3285 280.7818 15.08836809 59882
STARLINK-4522           
1 53388U 22097A   23228.68497481  .00000091  00000+0  23820-4 0  9999
2 53388  53.2183   6.0111 0001055  89.8600 270.2513 15.08840738 56715
STARLINK-4523           
1 53389U 22097B   23229.07505507  .00000067  00000+0  22255-4 0  9997
2 53389  53.2220   4.2614 0000472  63.7238 296.3803 15.08839465 56778
STARLINK-4517           
1 53390U 22097C   23229.07873735 -.00000845  00000+0 -34985-4 0  9999
2 53390  53.2159   4.2424 0001295  88.2744 271.8396 15.08837594 56774
STARLINK-4521           
1 53391U 22097D   23228.40897360 -.00000394  00000+0 -66753-5 0  9994
2 53391  53.2160   7.2462 0001491  93.8846 266.2317 15.08838312 56674
